BOBCAT-1                
1 46922U 98067RS  20331.43078158  .00019152  00000-0  33537-3 0  9990
2 46922  51.6431 265.4997 0002846  61.2844 298.8431 15.50616389  3284
NEUTRON-1               
1 46923U 98067RT  20331.43222034  .00014197  00000-0  25241-3 0  9992
2 46923  51.6429 265.5091 0002981  67.3379 292.7925 15.50432803  3343
DESCENT                 
1 46924U 98067RU  20331.23774385  .00030222  00000-0  52184-3 0  9995
2 46924  51.6428 266.4608 0003215  90.0565 270.0792 15.50729548  3287
SATLLA-1                
1 46927U 98067RX  20331.36876165  .00014561  00000-0  25925-3 0  9992
2 46927  51.6428 265.8351 0003225  82.9594 277.1761 15.50369248  3259
